{
  "norad_id": 66252,
  "name": "STARLINK-35483",
  "history": [
    {
      "epoch": "2026-03-28T17:14:36.546720",
      "apogee_km": 475.8852867145415,
      "perigee_km": 474.47076249346264,
      "latitude_deg": 52.56919117553429,
      "longitude_deg": 154.17394079989754,
      "semi_major_axis_km": 6853.315024604001,
      "eccentricity": 0.0001032,
      "inclination_deg": 53.1582,
      "raan_deg": 195.2394,
      "arg_perigee_deg": 79.7514,
      "mean_anomaly_deg": 280.3603,
      "mean_motion_rev_day": 15.30212407
    }
  ]
}